{"type": "FeatureCollection", "features": [ {"type": "Feature", "properties": {"norad_id": 31821, "name": "FENGYUN 1C DEB", "group": "fengyun-1c-debris", "lat": 18.57101922458759, "lon": -136.17436846325995, "alt_km": 598.8123399505776, "timestamp": "2025-12-07T09:35:10.074722+00:00", "meta": {"OBJECT_NAME": "FENGYUN 1C DEB", "OBJECT_ID": "1999-025CHK", "EPOCH": "2025-12-06T03:31:09.087744", "MEAN_MOTION": 14.4155298, "ECCENTRICITY": 0.02212689, "INCLINATION": 98.1561, "RA_OF_ASC_NODE": 225.3899, "ARG_OF_PERICENTER": 34.4184, "MEAN_ANOMALY": 327.1114, "EPHEMERIS_TYPE": 0, "CLASSIFICATION_TYPE": "U", "NORAD_CAT_ID": 31821, "ELEMENT_SET_NO": 999, "REV_AT_EPOCH": 93566, "BSTAR": 0.0078422064, "MEAN_MOTION_DOT": 0.0003427, "MEAN_MOTION_DDOT": 0}, "tle": {"line1": "1 31821U 99025CHK 25340.14663296  .00034270  00000+0  78422-2 0  9991", "line2": "2 31821  98.1561 225.3899 0221268  34.4184 327.1114 14.41552980935667"}}, "geometry": {"type": "Point", "coordinates": [-136.17436846325995, 18.57101922458759]}}, {"type": "Feature", "properties": {"norad_id": 31823, "name": "FENGYUN 1C DEB", "group": "fengyun-1c-debris", "lat": 80.15713941799832, "lon": -8.333232166452282, "alt_km": 689.9190117626304, "timestamp": "2025-12-07T09:35:10.074736+00:00", "meta": {"OBJECT_NAME": "FENGYUN 1C DEB", "OBJECT_ID": "1999-025CHM", "EPOCH": "2025-12-05T11:18:23.239584", "MEAN_MOTION": 14.65527354, "ECCENTRICITY": 0.00370888, "INCLINATION": 99.5125, "RA_OF_ASC_NODE": 64.5524, "ARG_OF_PERICENTER": 241.2937, "MEAN_ANOMALY": 118.4532, "EPHEMERIS_TYPE": 0, "CLASSIFICATION_TYPE": "U", "NORAD_CAT_ID": 31823, "ELEMENT_SET_NO": 999, "REV_AT_EPOCH": 96611, "BSTAR": 0.0024343753, "MEAN_MOTION_DOT": 0.00013294, "MEAN_MOTION_DDOT": 0}, "tle": {"line1": "1 31823U 99025CHM 25339.47110231  .00013294  00000+0  24344-2 0  9990", "line2": "2 31823  99.5125  64.5524 0037088 241.2937 118.4532 14.65527354966119"}}, "geometry": {"type": "Point", "coordinates": [-8.333232166452282, 80.15713941799832]}}, {"type": "Feature", "properties": {"norad_id": 31825, "name": "FENGYUN 1C DEB", "group": "fengyun-1c-debris", "lat": -75.33793759003566, "lon": 16.430100826159002, "alt_km": 788.2755885601937, "timestamp": "2025-12-07T09:35:10.074747+00:00", "meta": {"OBJECT_NAME": "FENGYUN 1C DEB", "OBJECT_ID": "1999-025CHP", "EPOCH": "2025-12-06T05:13:40.692576", "MEAN_MOTION": 14.21609837, "ECCENTRICITY": 0.01660672, "INCLINATION": 98.59, "RA_OF_ASC_NODE": 339.9891, "ARG_OF_PERICENTER": 357.2805, "MEAN_ANOMALY": 2.7454, "EPHEMERIS_TYPE": 0, "CLASSIFICATION_TYPE": "U", "NORAD_CAT_ID": 31825, "ELEMENT_SET_NO": 999, "REV_AT_EPOCH": 95529, "BSTAR": 0.0012829772, "MEAN_MOTION_DOT": 3.193e-05, "MEAN_MOTION_DDOT": 0}, "tle": {"line1": "1 31825U 99025CHP 25340.21783209  .00003193  00000+0  12830-2 0  9991", "line2": "2 31825  98.5900 339.9891 0166067 357.2805   2.7454 14.21609837955293"}}, "geometry": {"type": "Point", "coordinates": [16.430100826159002, -75.33793759003566]}}, {"type": "Feature", "properties": {"norad_id": 31826, "name": "FENGYUN 1C DEB", "group": "fengyun-1c-debris", "lat": -13.118513246382497, "lon": 150.63904692906567, "alt_km": 744.9330966569751, "timestamp": "2025-12-07T09:35:10.074757+00:00", "meta": {"OBJECT_NAME": "FENGYUN 1C DEB", "OBJECT_ID": "1999-025CHQ", "EPOCH": "2025-12-06T11:23:56.742720", "MEAN_MOTION": 14.19260003, "ECCENTRICITY": 0.01237064, "INCLINATION": 98.6256, "RA_OF_ASC_NODE": 331.7661, "ARG_OF_PERICENTER": 207.4474, "MEAN_ANOMALY": 305.2757, "EPHEMERIS_TYPE": 0, "CLASSIFICATION_TYPE": "U", "NORAD_CAT_ID": 31826, "ELEMENT_SET_NO": 999, "REV_AT_EPOCH": 95725, "BSTAR": 0.00064429982, "MEAN_MOTION_DOT": 1.415e-05, "MEAN_MOTION_DDOT": 0}, "tle": {"line1": "1 31826U 99025CHQ 25340.47496230  .00001415  00000+0  64430-3 0  9994", "line2": "2 31826  98.6256 331.7661 0123706 207.4474 305.2757 14.19260003957255"}}, "geometry": {"type": "Point", "coordinates": [150.63904692906567, -13.118513246382497]}}, {"type": "Feature", "properties": {"norad_id": 31829, "name": "FENGYUN 1C DEB", "group": "fengyun-1c-debris", "lat": -69.81890056130253, "lon": -53.53337361213681, "alt_km": 902.0394580339334, "timestamp": "2025-12-07T09:35:10.074767+00:00", "meta": {"OBJECT_NAME": "FENGYUN 1C DEB", "OBJECT_ID": "1999-025CHT", "EPOCH": "2025-12-03T06:39:41.312736", "MEAN_MOTION": 13.8866372, "ECCENTRICITY": 0.0168978, "INCLINATION": 98.8353, "RA_OF_ASC_NODE": 147.5933, "ARG_OF_PERICENTER": 190.204, "MEAN_ANOMALY": 344.9165, "EPHEMERIS_TYPE": 0, "CLASSIFICATION_TYPE": "U", "NORAD_CAT_ID": 31829, "ELEMENT_SET_NO": 999, "REV_AT_EPOCH": 94016, "BSTAR": 0.00067055, "MEAN_MOTION_DOT": 8.64e-06, "MEAN_MOTION_DDOT": 0}, "tle": {"line1": "1 31829U 99025CHT 25337.27756149  .00000864  00000+0  67055-3 0  9992", "line2": "2 31829  98.8353 147.5933 0168978 190.2040 344.9165 13.88663720940164"}}, "geometry": {"type": "Point", "coordinates": [-53.53337361213681, -69.81890056130253]}}, {"type": "Feature", "properties": {"norad_id": 31830, "name": "FENGYUN 1C DEB", "group": "fengyun-1c-debris", "lat": 0.3288860744736497, "lon": 87.16579569181798, "alt_km": 840.3604738963895, "timestamp": "2025-12-07T09:35:10.074777+00:00", "meta": {"OBJECT_NAME": "FENGYUN 1C DEB", "OBJECT_ID": "1999-025CHU", "EPOCH": "2025-12-02T06:36:37.177056", "MEAN_MOTION": 13.83353348, "ECCENTRICITY": 0.0181639, "INCLINATION": 99.1637, "RA_OF_ASC_NODE": 82.2262, "ARG_OF_PERICENTER": 342.8195, "MEAN_ANOMALY": 72.1801, "EPHEMERIS_TYPE": 0, "CLASSIFICATION_TYPE": "U", "NORAD_CAT_ID": 31830, "ELEMENT_SET_NO": 999, "REV_AT_EPOCH": 92595, "BSTAR": 0.0020067, "MEAN_MOTION_DOT": 2.461e-05, "MEAN_MOTION_DDOT": 0}, "tle": {"line1": "1 31830U 99025CHU 25336.27543029  .00002461  00000+0  20067-2 0  9990", "line2": "2 31830  99.1637  82.2262 0181639 342.8195  72.1801 13.83353348925954"}}, "geometry": {"type": "Point", "coordinates": [87.16579569181798, 0.3288860744736497]}}, {"type": "Feature", "properties": {"norad_id": 31834, "name": "FENGYUN 1C DEB", "group": "fengyun-1c-debris", "lat": 50.31442248344506, "lon": 32.2430692774726, "alt_km": 782.3355383824246, "timestamp": "2025-12-07T09:35:10.074788+00:00", "meta": {"OBJECT_NAME": "FENGYUN 1C DEB", "OBJECT_ID": "1999-025CHY", "EPOCH": "2025-12-06T21:00:29.900448", "MEAN_MOTION": 14.03146077, "ECCENTRICITY": 0.0162719, "INCLINATION": 98.3689, "RA_OF_ASC_NODE": 201.5424, "ARG_OF_PERICENTER": 94.0747, "MEAN_ANOMALY": 267.9038, "EPHEMERIS_TYPE": 0, "CLASSIFICATION_TYPE": "U", "NORAD_CAT_ID": 31834, "ELEMENT_SET_NO": 999, "REV_AT_EPOCH": 63628, "BSTAR": 0.00035819044, "MEAN_MOTION_DOT": 5.89e-06, "MEAN_MOTION_DDOT": 0}, "tle": {"line1": "1 31834U 99025CHY 25340.87534607  .00000589  00000+0  35819-3 0  9998", "line2": "2 31834  98.3689 201.5424 0162719  94.0747 267.9038 14.03146077636282"}}, "geometry": {"type": "Point", "coordinates": [32.2430692774726, 50.31442248344506]}}, {"type": "Feature", "properties": {"norad_id": 31837, "name": "FENGYUN 1C DEB", "group": "fengyun-1c-debris", "lat": -43.760824937826, "lon": 64.71624531752526, "alt_km": 616.5001830701931, "timestamp": "2025-12-07T09:35:10.074797+00:00", "meta": {"OBJECT_NAME": "FENGYUN 1C DEB", "OBJECT_ID": "1999-025CJB", "EPOCH": "2025-12-06T11:05:58.197696", "MEAN_MOTION": 14.82076546, "ECCENTRICITY": 0.0094318, "INCLINATION": 98.102, "RA_OF_ASC_NODE": 55.9272, "ARG_OF_PERICENTER": 38.0956, "MEAN_ANOMALY": 322.6875, "EPHEMERIS_TYPE": 0, "CLASSIFICATION_TYPE": "U", "NORAD_CAT_ID": 31837, "ELEMENT_SET_NO": 999, "REV_AT_EPOCH": 98266, "BSTAR": 0.001865506, "MEAN_MOTION_DOT": 0.00015992, "MEAN_MOTION_DDOT": 0}, "tle": {"line1": "1 31837U 99025CJB 25340.46247914  .00015992  00000+0  18655-2 0  9990", "line2": "2 31837  98.1020  55.9272 0094318  38.0956 322.6875 14.82076546982667"}}, "geometry": {"type": "Point", "coordinates": [64.71624531752526, -43.760824937826]}}, {"type": "Feature", "properties": {"norad_id": 31838, "name": "FENGYUN 1C DEB", "group": "fengyun-1c-debris", "lat": -65.55488055800474, "lon": 51.890406757095484, "alt_km": 856.7336134322068, "timestamp": "2025-12-07T09:35:10.074808+00:00", "meta": {"OBJECT_NAME": "FENGYUN 1C DEB", "OBJECT_ID": "1999-025CJC", "EPOCH": "2025-12-06T08:49:21.453024", "MEAN_MOTION": 14.21105731, "ECCENTRICITY": 0.00388378, "INCLINATION": 98.7183, "RA_OF_ASC_NODE": 31.1437, "ARG_OF_PERICENTER": 113.4762, "MEAN_ANOMALY": 303.75, "EPHEMERIS_TYPE": 0, "CLASSIFICATION_TYPE": "U", "NORAD_CAT_ID": 31838, "ELEMENT_SET_NO": 999, "REV_AT_EPOCH": 64486, "BSTAR": 0.0013391766, "MEAN_MOTION_DOT": 2.888e-05, "MEAN_MOTION_DDOT": 0}, "tle": {"line1": "1 31838U 99025CJC 25340.36760941  .00002888  00000+0  13392-2 0  9993", "line2": "2 31838  98.7183  31.1437 0038837 113.4762 303.7500 14.21105731644864"}}, "geometry": {"type": "Point", "coordinates": [51.890406757095484, -65.55488055800474]}}, {"type": "Feature", "properties": {"norad_id": 31841, "name": "FENGYUN 1C DEB", "group": "fengyun-1c-debris", "lat": 32.411002913964154, "lon": -24.082030157543198, "alt_km": 1102.3594339146503, "timestamp": "2025-12-07T09:35:10.074820+00:00", "meta": {"OBJECT_NAME": "FENGYUN 1C DEB", "OBJECT_ID": "1999-025CJF", "EPOCH": "2025-12-06T06:21:25.793568", "MEAN_MOTION": 14.03499984, "ECCENTRICITY": 0.03088004, "INCLINATION": 98.4174, "RA_OF_ASC_NODE": 149.4715, "ARG_OF_PERICENTER": 323.8486, "MEAN_ANOMALY": 214.4661, "EPHEMERIS_TYPE": 0, "CLASSIFICATION_TYPE": "U", "NORAD_CAT_ID": 31841, "ELEMENT_SET_NO": 999, "REV_AT_EPOCH": 59248, "BSTAR": 0.0025383522, "MEAN_MOTION_DOT": 6.033e-05, "MEAN_MOTION_DDOT": 0}, "tle": {"line1": "1 31841U 99025CJF 25340.26488187  .00006033  00000+0  25384-2 0  9995", "line2": "2 31841  98.4174 149.4715 0308800 323.8486 214.4661 14.03499984592489"}}, "geometry": {"type": "Point", "coordinates": [-24.082030157543198, 32.411002913964154]}}]}